{
  "norad_id": 60933,
  "name": "STARLINK-11207 [DTC]",
  "history": [
    {
      "epoch": "2026-03-28T20:08:41.485056Z",
      "apogee_km": 360.3789906994316,
      "perigee_km": 359.07993004587115,
      "latitude_deg": -1.7106703849662434e-06,
      "longitude_deg": 118.1578885450823,
      "height_km": 360.37040089874876,
      "semi_major_axis_km": 6737.866460372651,
      "eccentricity": 9.64e-05,
      "inclination_deg": 53.1577,
      "raan_deg": 246.5848,
      "arg_perigee_deg": 65.1685,
      "mean_anomaly_deg": 294.9433,
      "mean_motion_rev_day": 15.69709053
    }
  ]
}